ONEWEB-0228             
1 48780U 21045P   24061.91379084  .00000204  00000+0  50734-3 0  9990
2 48780  87.8945  65.8167 0001963  85.5244 274.6110 13.15549151134240
